IRIDIUM 26              
1 24903U 97043A   26015.46325822  .00000305  00000+0  95736-4 0  9998
2 24903  86.3944  21.3819 0002411  91.0257 269.1217 14.37358091487233
IRIDIUM 22              
1 24907U 97043E   26015.56993564  .00000249  00000+0  78761-4 0  9993
2 24907  86.3945  25.0593 0002259  87.2182 272.9274 14.36147975487255
DUMMY MASS 1            
1 24925U 97048A   26015.51555841  .00000280  00000+0  27909-4 0  9998
2 24925  86.3318  37.0683 0008893 107.3225 252.8974 14.87214020536682
DUMMY MASS 2            
1 24926U 97048B   26015.58049353  .00000266  00000+0  26538-4 0  9993
2 24926  86.3318  38.6854 0009448 116.8964 243.3228 14.86964356536468
IRIDIUM 29              
1 24944U 97051A   26015.58493797  .00000251  00000+0  78438-4 0  9992
2 24944  86.3922  54.7260 0002065  89.0544 271.0890 14.36691194483761
IRIDIUM 33              
1 24946U 97051C   26015.59436438  .00000224  00000+0  71490-4 0  9995
2 24946  86.3838  54.0043 0010005 102.0450 258.1868 14.35062724483206
IRIDIUM 28              
1 24948U 97051E   26015.56397754  .00000260  00000+0  80104-4 0  9993
2 24948  86.3928  52.1293 0002756  94.7087 265.4425 14.37592147484357
IRIDIUM 36              
1 24967U 97056C   26015.56381861  .00000276  00000+0  84915-4 0  9992
2 24967  86.3943  83.7606 0002432  91.4365 268.7111 14.37817898482738
